Store Name	Street Address	Address	Borough	"Zip 
Code"	Year Awarded	"Program 
Wave"	Latitude	Longitude	NTA
SIRAH 1720 LLC	535 MARCY AVE		Brooklyn	11206	2020	8	40.696961	-73.949512	Bedford
FIRST STOP GROCERY INC	643 MARCY AVE		Brooklyn	11206	2020	8	40.692552	-73.948632	Bedford
AANDE DIRECT LLC	40 LEWIS AVE		Brooklyn	11206	2020	8	40.696576	-73.937777	Stuyvesant Heights
CENTRAL ORGANIC	67 CENTRAL AVE		Brooklyn	11206	2020	8	40.701096	-73.930445	Bushwick South
194 THROOP FOOD CORP	777 PARK AVE		Brooklyn	11206	2020	8	40.698191	-73.944311	Bedford
BROADWAY ORGANIC DELI INC	799 BROADWAY		Brooklyn	11206	2020	8	40.699745	-73.940176	Bushwick South
MLD 91 FOOD CORP	91 HUMBOLDT ST		Brooklyn	11206	2020	8	40.704472	-73.941009	East Williamsburg
GRAHAM STOP ONE DELI INC	146 GRAHAM AVE		Brooklyn	11206	2020	8	40.70643	-73.943045	Bushwick South
BOGOPA MANHATTAN INC	21 MANHATTAN AVE		Brooklyn	11206	2020	8	40.702939	-73.944235	East Williamsburg
LEE HEYWARD GROCERY INC	198 LEE AVE		Brooklyn	11206	2020	8	40.701855	-73.955636	Bedford
164 TOMPKIN DELI	164 TOMPKINS ST		Brooklyn	11206	2020	8			
J A TOMPKINS FOOD CORP	920 MYRTLE AVE		Brooklyn	11206	2020	8	40.695814	-73.945344	Bedford
JRM DELI GROCERY CORP	98 MARCUS GARVEY BLVD		Brooklyn	11206	2020	8	40.695505	-73.940544	Stuyvesant Heights
AFS MARKET INC	1102 MYRTLE AVE		Brooklyn	11206	2020	8	40.696817	-73.936605	Stuyvesant Heights
GREEN CORNER OF NY LLC	801 FLUSHING AVE		Brooklyn	11206	2020	8	40.701019	-73.940705	East Williamsburg
726 MEAT MARKET INC	726 BROADWAY		Brooklyn	11206	2020	8	40.701171	-73.942667	Bedford
711 BROOKLYN DELI CORP	711 FLUSHING AVE		Brooklyn	11206	2020	8	40.700485	-73.943959	Bedford
THE LUNCH BOX DELI CORP	204 BUSHWICK AVE		Brooklyn	11206	2020	8	40.708767	-73.940031	Bushwick South
PAULA MARKET AND DELI CORP	276 HUMBOLDT ST		Brooklyn	11206	2020	8	40.711173	-73.942114	East Williamsburg
SEM SEM DELI CORP	75 HUMBOLDT ST		Brooklyn	11206	2020	8	40.704022	-73.940926	East Williamsburg
LORIMER DELI FOOD CORP	400 LORIMER ST		Brooklyn	11206	2020	8	40.708821	-73.948497	East Williamsburg
ORANGE TREE ORGANIC MARKET CORP	121 GRAHAM AVE		Brooklyn	11206	2020	8	40.705994	-73.942995	East Williamsburg
128 T EDGECOMBE DELI CORP	128 EDGECOMBE AVE		New York	10030	2020	8	40.820961	-73.945071	Central Harlem North-Polo Grounds
135 FUTURE LANDM CORP	24 WEST 135TH ST		New York	10037	2020	8	40.813209	-73.938756	Central Harlem North-Polo Grounds
135TH STREET DELI AND GROCERY CORP	266 WEST 135TH ST		New York	10030	2020	8	40.816056	-73.945505	Central Harlem North-Polo Grounds
141 FINEST DELI CORP	332 WEST 141ST ST		New York	10030	2020	8	40.820958	-73.945375	Central Harlem North-Polo Grounds
2278 DELI AND GROCERY INC	2278 7TH AVE		New York	10030	2020	8	40.814546	-73.944268	Central Harlem North-Polo Grounds
477 FOOD CORP	477 LENOX AVE		New York	10037	2020	8	40.813274	-73.94148	Central Harlem North-Polo Grounds
ADAM 1 FOOD CENTER INC	2657 FREDERICK DOUGLAS BLVD		New York	10030	2020	8	40.820741	-73.943464	Central Harlem North-Polo Grounds
BIG APPLE GRILL DELI INC	521 LENOX AVE		New York	10037	2020	8	40.814873	-73.940311	Central Harlem North-Polo Grounds
EL PATIO DELI CORP	2082 MADISON AVE		New York	10037	2020	8	40.809627	-73.93782	Central Harlem North-Polo Grounds
ESAYI CORP	2461 ADAM CLAYTON POWELL JR BLVD		New York	10030	2020	8	40.820418	-73.939952	Central Harlem North-Polo Grounds
FUNFAIR DELI CORP	537 LENOX AVE		New York	10037	2020	8	40.815499	-73.939852	Central Harlem North-Polo Grounds
GOLDEN DELI GROCERY CORP	2210 5TH AVE		New York	10037	2020	8	40.812473	-73.937835	Central Harlem North-Polo Grounds
HARLEM EMPIRE DELI INC	251 WEST 135TH ST		New York	10030	2020	8	40.815938	-73.94518	Central Harlem North-Polo Grounds
JANET FOOD CORP	2630 FREDERICK DOUGLASS BLVD		New York	10030	2020	8	40.819764	-73.944155	Central Harlem North-Polo Grounds
K AND S DELI CORP	429 LENOX AVE		New York	10037	2020	8	40.811888	-73.942496	Central Harlem North-Polo Grounds
LENOX AND 132ND FOOD CORP	448 LENOX AVE		New York	10037	2020	8	40.812396	-73.942095	Central Harlem North-Polo Grounds
LINCOLN DELI GROCERY INC 1	2095 MADISON AVE		New York	10037	2020	8	40.809959	-73.937238	Central Harlem North-Polo Grounds
MANDS FOOD CORP	2482 7TH AVE		New York	10030	2020	8	40.821167	-73.939431	Central Harlem North-Polo Grounds
MR 2497 FOOD CORP	2497 7TH AVE		New York	10030	2020	8	40.821482	-73.939178	Central Harlem North-Polo Grounds
NUNEZ DOMINGO	2591 8TH AVE		New York	10030	2020	8	40.818518	-73.945088	Central Harlem North-Polo Grounds
RIMAR GOURMET DELI INC	2611 FREDERICK DOUGLAS BLVD		New York	10030	2020	8	40.819097	-73.944665	Central Harlem North-Polo Grounds
ROSANNA FOOD CORP	592 LENOX AVE		New York	10037	2020	8	40.817088	-73.938669	Central Harlem North-Polo Grounds
1029 FOOD PLAZA INC	122 EAST 181ST ST		Bronx	10453	2020	8	40.854853	-73.903444	Mount Hope
109 AJ DELI GROCERY CORP	109 EAST TREMONT AVE		Bronx	10453	2020	8	40.850673	-73.907372	Mount Hope
48 BURNSIDE FOOD CORP	40 WEST BURNSIDE AVE		Bronx	10453	2020	8	40.853839	-73.909077	University Heights-Morris Heights
58 BURNSIDE FOOD CORP	58 WEST BURNSIDE AVE		Bronx	10453	2020	8	40.854163	-73.909767	University Heights-Morris Heights
65 BURNSIDE MEAT MARKET CORP	65 EAST BURNSIDE AVE		Bronx	10453	2020	8	40.853367	-73.906146	Mount Hope
ALEX FOOD II CORP	1615 UNIVERSITY AVE		Bronx	10453	2020	8	40.847317	-73.919933	University Heights-Morris Heights
BONAO MEATS AND PRODUCE II INC	82 EAST BURNSIDE AVE		Bronx	10453	2020	8	40.853268	-73.905933	Mount Hope
BURNSIDE AVE FOOD CENTER INC	111 EAST BURNSIDE AVE		Bronx	10453	2020	8	40.853059	-73.905344	Mount Hope
CRUZ MEAT CORP	2262 JEROME AVE		Bronx	10453	2020	8	40.85815	-73.904025	Fordham South
GANDA DELI GROCERY CORP	129 WEST TREMONT AVE		Bronx	10453	2020	8	40.850025	-73.913756	University Heights-Morris Heights
GAVA FOOD CORP	127 WEST BURNSIDE AVE		Bronx	10453	2020	8	40.853829	-73.913899	University Heights-Morris Heights
JD DELI AND PIZZA INC	2207 JEROME AVE		Bronx	10453	2020	8	40.857217	-73.904601	Fordham South
JESSICA SUPERMARKET CORP	1645 GRAND AVE		Bronx	10453	2020	8	40.846985	-73.91513	University Heights-Morris Heights
JULIAN GROCERY CORP	143 WEST BURNSIDE AVE		Bronx	10453	2020	8	40.853898	-73.91434	University Heights-Morris Heights
LA GRAN FAMOSA FOOD MARKET CORP	1704 GRAND AVE		Bronx	10453	2020	8	40.848507	-73.914025	University Heights-Morris Heights
LA PODEROSA GROCERY STORE CORP	27 EAST 175TH ST		Bronx	10453	2020	8	40.847498	-73.911887	Mount Hope
LOS COMPADRES - 1 GROCERY INC	21 WEST 176TH ST		Bronx	10453	2020	8	40.848468	-73.913122	University Heights-Morris Heights
LOS PINOS FOOD CORP	148 EAST BURNSIDE AVE		Bronx	10453	2020	8	40.852452	-73.904629	Mount Hope
MORRIS BEST DELI AND GRILL INC	16 EAST 183RD ST		Bronx	10453	2020	8	40.858583	-73.903355	Fordham South
MY FAMILY DELI GROCERY CORP	54 EAST 181ST ST		Bronx	10453	2020	8	40.855271	-73.904564	Mount Hope
PALMAR MINI MARKET INC	2160 WALTON AVE		Bronx	10453	2020	8	40.855644	-73.904491	Fordham South
PAN DELI GROCERY CORP	1893 ANDREWS AVE		Bronx	10453	2020	8	40.85362	-73.913889	University Heights-Morris Heights
PRIMAVERA DELI GROCERY CORP	79 EAST BURNSIDE AVE		Bronx	10453	2020	8	40.853301	-73.905973	Mount Hope
PUNAL GROCERY CORP	218 WEST TREMONT AVE		Bronx	10453	2020	8	40.85208	-73.91718	University Heights-Morris Heights
RAYKELL FOOD CORP	78 WEST 183RD ST		Bronx	10453	2020	8	40.859277	-73.906546	University Heights-Morris Heights
SABOR CRIOLLO GROCERY CORP	1841 GRAND CONCOURSE		Bronx	10453	2020	8	40.848022	-73.907336	Mount Hope
TEAMS MARKET INC	1791 WALTON AVE		Bronx	10453	2020	8	40.848015	-73.909931	Mount Hope
THREE TIMES C FOOD CORP	1707 UNIVERSITY AVE		Bronx	10453	2020	8	40.849338	-73.917089	University Heights-Morris Heights
TRES K DELI GRCY FRUITANDMEAT INC	125 WEST TREMONT AVE		Bronx	10453	2020	8	40.850041	-73.913619	University Heights-Morris Heights
VILLA TRINA FOOD CORP	70 EAST 183RD ST		Bronx	10453	2020	8	40.858247	-73.902387	Fordham South
Rivas Deli Grocery	651	East 183rd Street	Bronx	10458	2013	1	40.852568	-73.887484	Belmont
C-Town	1761	Southern Boulevard	Bronx	10460	2013	1	40.837267	-73.888016	Crotona Park East
La India Mini Market	1942	Marmion Avenue	Bronx	10460	2013	1	40.842942	-73.887136	East Tremont
Los Hermanos	2019	Vyse Avenue	Bronx	10460	2013	1	40.842391	-73.881835	East Tremont
Price Choice Food Market	820	East 180th Street	Bronx	10460	2013	1	40.846173	-73.884871	East Tremont
D&A Deli Grocery	1155	East Tremont Avenue	Bronx	10460	2013	1	40.839889	-73.875193	East Tremont
Lucky Star Gourmet Deli	856	East 188th Street	Bronx	10460	2013	1			
Food Choice	333	East 184th Street	Bronx	10458	2013	1	40.858274	-73.896071	Bedford Park-Fordham North
Cache Grocery	804	East 178th Street	Bronx	10460	2013	1	40.844534	-73.887046	East Tremont
Associated Supermarket	1334	Louis Nine Boulevard	Bronx	10459	2013	1	40.831441	-73.892279	Crotona Park East
AZ Deli	1093A	Southern Boulevard	Bronx	10459	2013	1	40.825924	-73.89193	Hunts Point
Price Choice Food Market	807	Tremont Avenue	Bronx	10460	2013	1			
Key Foods	1050	Westchester Boulevard	Bronx	10459	2013	1			
Pioneer Supermarket	2865	Webester Avenue	Bronx	10458	2013	1			
Compare Foods	4800	Park Avenue	Bronx	10458	2013	1			
Met Supermarket	277	198th Street	Bronx	10458	2013	1			
EEJ Deli	550	East 187th Street	Bronx	10458	2013	1	40.856355	-73.889094	Belmont
Santana	4664	Park Avenue	Bronx	10458	2013	1	40.85817	-73.892869	Claremont-Bathgate
FineFare	1472	Boston Road	Bronx	10460	2013	1	40.834232	-73.89488	Crotona Park East
Deli Grocery	275	East Kingsbridge Road	Bronx	10458	2013	1	40.863691	-73.894244	Bedford Park-Fordham North
965 Castillo Meat and Produce	965	East 172nd Street	Bronx	10460	2013	1	40.833364	-73.887683	Crotona Park East
Santos	2641	Bainbridge Avenue	Bronx	10458	2013	1	40.864814	-73.892048	Bedford Park-Fordham North
Alondra Food Corp.	838	East 180th Street	Bronx	10460	2013	1	40.8457	-73.883911	East Tremont
Brianelly	2308	Washington Avenue	Bronx	10458	2013	1	40.855606	-73.892808	Claremont-Bathgate
Emerald Food Store	2709-11	Briggs Avenue	Bronx	10458	2013	1	40.866359	-73.891673	Bedford Park-Fordham North
Bx Supermarket/Compare Foods	312	E. 194th Street	Bronx	10458	2013	1	40.864421	-73.891799	Bedford Park-Fordham North
1030 Deli & Food Corp	1030	East Tremont Avenue	Bronx	10460	2013	1	40.840342	-73.88087	East Tremont
"Kelvin Food Mart, Inc"	724	East 187th Street	Bronx	10458	2013	1	40.853863	-73.883499	Belmont
Stop One	2431	Hoffman Street	Bronx	10458	2013	1	40.856754	-73.887821	Belmont
A-Mart	2433	Hoffman Street	Bronx	10458	2013	1	40.857023	-73.887585	Belmont
Modern Food	2385	Arthur Avenue	Bronx	10458	2013	1	40.855237	-73.887849	Belmont
Mickey & Elvis College	717	East 187th Street	Bronx	10458	2013	1	40.854025	-73.883997	Belmont
Bronx Zoo Deli Corp	732	East 187th Street	Bronx	10460	2013	1	40.853821	-73.883351	Belmont
548 Gourmet Deli	548	East 183rd Street	Bronx	10458	2013	1	40.854186	-73.891042	Claremont-Bathgate
Danery's Grocery Corp.	765	East 175th Street	Bronx	10460	2013	1	40.841486	-73.891125	East Tremont
Will Grocery & Meat Market	1492	Vyse Avenue	Bronx	10460	2013	1	40.833029	-73.888186	Crotona Park East
A & G Gourmet Deli	2132	Mohegan Avenue	Bronx	10460	2013	1	40.84641	-73.882688	East Tremont
Ca?a Arriba	1465	Bryant Avenue	Bronx	10460	2013	1	40.831953	-73.887823	Crotona Park East
885 East Tremont Deli	885	East Tremont Avenue	Bronx	10460	2013	1	40.842463	-73.885123	East Tremont
Pioneer Supermarket	2865	Webester Avenue	Bronx	10458	2013	1			
Compare Foods	4800	Park Avenue	Bronx	10458	2013	1			
Tejada Castillo Food Corporation	1675	Boston Road	Bronx	10458	2013	1	40.836404	-73.889409	Crotona Park East
Tony's Family	526	East 183rd Street	Bronx	10458	2013	1	40.854678	-73.891945	Claremont-Bathgate
Compare Foods	2477	Valentine Avenue	Bronx	10458	2013	1	40.86156	-73.896196	Bedford Park-Fordham North
20/20 Deli	1120	Southern Boulevard	Bronx	10459	2014	2	40.827058	-73.891896	Morrisania-Melrose
543 Deli	543	Southern Boulevard	Bronx	10455	2014	2	40.812296	-73.90361	Longwood
908 Garcia Fruit and Grocery	908	East 163rd Street	Bronx	10459	2014	2	40.821006	-73.898026	Longwood
Alan Deli Grocery	798	East 170th Street	Bronx	10459	2014	2	40.833138	-73.89559	Crotona Park East
Amelia Grocery	954	Prospect Avenue	Bronx	10459	2014	2	40.822696	-73.900354	Longwood
Asociados Meat Market	1025	Westchester Avenue	Bronx	10459	2014	2	40.824114	-73.893017	Hunts Point
Associated Supermarket	1334	Louis Nine Boulevard	Bronx	10459	2014	2	40.831441	-73.892279	Crotona Park East
Celia	966	Longwood Avenue	Bronx	10459	2014	2	40.817424	-73.898101	Longwood
Crystal Grocery	1090	Longfellow Avenue	Bronx	10459	2014	2	40.826005	-73.887826	Hunts Point
Deli Farm Meat and Grocery	850	Longwood Avenue	Bronx	10459	2014	2	40.819376	-73.901378	Longwood
El Patio Grocery	643	Wales Avenue/766 E 152 ST	Bronx	10455	2014	2			
Fair Farm	950	Westchester Avenue	Bronx	10459	2014	2	40.822388	-73.896326	Longwood
Genao Food Store	926	Intervale Avenue	Bronx	10459	2014	2	40.819986	-73.896695	Longwood
Home Street Deli	-892	894 Home Street	Bronx	10459	2014	2			
Ivoire African Market	1339	Prospect Avenue	Bronx	10459	2014	2	40.829569	-73.897522	Morrisania-Melrose
J&W Food Center	990	Leggett Avenue	Bronx	10455	2014	2	40.814565	-73.899875	Longwood
Los Hermanos Meat & Grocery	501B	Jackson Avenue	Bronx	10455	2014	2	40.812032	-73.909517	Mott Haven-Port Morris
Luis & Angie Deli Grocery	976	Prospect Avenue	Bronx	10459	2014	2	40.823225	-73.900133	Longwood
Paulino Deli Grocery	798	Hunts Point Avenue	Bronx	10474	2014	2	40.816473	-73.887795	Hunts Point
REAL Supermarket	818	Westchester Ave. (795 Prospect Ave.)	Bronx	10459	2014	2	40.819173	-73.902571	Melrose South-Mott Haven North
Salgados Superette	1131	West Farms Road	Bronx	10459	2014	2	40.82643	-73.890307	Hunts Point
South Side Food	726	East 152nd Street	Bronx	10455	2014	2	40.816005	-73.907976	Melrose South-Mott Haven North
Super Deli Grocery Store	740	East 149th Street	Bronx	10455	2014	2	40.813082	-73.908389	Mott Haven-Port Morris
Top Quality	1019	SIimpson Street	Bronx	10459	2014	2			
Torres Meat & Grocery	950	Longwood Avenue	Bronx	10459	2014	2	40.817614	-73.898415	Longwood
Union Foods	835	East152nd Street	Bronx	10455	2014	2	40.815242	-73.904242	Melrose South-Mott Haven North
VR Vegetable N Grocery	928	Sothern Boulevard	Bronx	10459	2014	2			
3368 Cypress Deli & Grocery	3368	Fulton Street	Brooklyn	11208	2015	2	40.683854	-73.871439	Cypress Hills-City Line
Apple Deli and Grill	1203	Sutter Avenue	Brooklyn	11208	2015	2	40.672551	-73.873509	East New York
Bangla Supermarket	1211	Liberty Avenue	Brooklyn	11208	2015	2	40.678988	-73.864858	Cypress Hills-City Line
Claribel Deli & Grocery	241	Ridgewood Avenue	Brooklyn	11208	2015	2	40.683696	-73.87966	Cypress Hills-City Line
Dari's Grocery	224	Lincoln Avenue	Brooklyn	11208	2015	2	40.684755	-73.869599	Cypress Hills-City Line
Decayagua Deli Grocery	290	Arlington Avenue	Brooklyn	11208	2015	2	40.680961	-73.883826	East New York
Dumont Deli & Grocery	690	Linwood St.	Brooklyn	11208	2015	2	40.668497	-73.88122	East New York
Four Star Supermarket	1075	Liberty Avenue	Brooklyn	11208	2015	2	40.678354	-73.869546	Cypress Hills-City Line
Fulton Gourmet Deli and Grill	3336	Fulton St	Brooklyn	11208	2015	2	40.683548	-73.872518	Cypress Hills-City Line
J and J Grocery	1055	Blake Avenue	Brooklyn	11208	2015	2	40.670136	-73.879335	East New York
J R Grocery	944	Hegeman Avenue	Brooklyn	11208	2015	2	40.665825	-73.877941	East New York
J.T. Deli Grocery	1145	Glenmore Avenue	Brooklyn	11208	2015	2	40.677497	-73.866563	Cypress Hills-City Line
Los Chamona Deli Grocery	576	Ridgewood Avenue	Brooklyn	11208	2015	2	40.686622	-73.867839	Cypress Hills-City Line
Luna Grocery	1082	Hegeman Avenue	Brooklyn	11208	2015	2	40.667838	-73.873244	East New York
MACO Food Corp.	1018	Belmont Avenue	Brooklyn	11208	2015	2	40.674146	-73.871458	East New York
Melendez Deli Grocery	145	Euclid Avenue	Brooklyn	11208	2015	2	40.685225	-73.874621	Cypress Hills-City Line
Mike's Grocery Corp.	1268	Sutter Avenue	Brooklyn	11208	2015	2	40.672872	-73.871161	East New York
My Neighborhood Grocery	385	Chestnut Street	Brooklyn	11208	2015	2	40.677517	-73.873983	East New York
New Way Grocery	145	Ridgewood Avenue	Brooklyn	11208	2015	2	40.68303	-73.883368	Cypress Hills-City Line
Reyes & G Mini Market	120	Autumn Avenue	Brooklyn	11208	2015	2	40.687414	-73.871065	Cypress Hills-City Line
Sutter Grocery	978	Sutter Avenue	Brooklyn	11208	2015	2	40.671237	-73.882578	East New York
1879 Deli Carter Corp	1879	Carter Avenue	Bronx	10457	2015	3	40.847345	-73.901904	Mount Hope
Anthony's Place Deli Grocery	306	East 178 Street	Bronx	10457	2015	3	40.849999	-73.902497	Mount Hope
Aurora Deli Grocery	150	East 174 STREET	Bronx	10457	2015	3	40.844842	-73.909679	Mount Hope
C & T Deli Grocery	2275	Washington Avenue	Bronx	10457	2015	3	40.855028	-73.893336	Claremont-Bathgate
Concourse Food Plaza	2096	Grand Concourse	Bronx	10457	2015	3	40.854042	-73.902295	Mount Hope
C-Town	229	East Tremont Avenue	Bronx	10457	2015	3	40.848997	-73.904772	Mount Hope
C-Town	309	East Burnside Avenue	Bronx	10457	2015	3	40.850588	-73.901133	Mount Hope
Deli Grocery	2236	Grand Concourse	Bronx	10457	2015	3	40.856256	-73.90064	Fordham South
El Abanico Deli Grocery Corp.	214	East 180 Street	Bronx	10457	2015	3	40.853232	-73.901971	Mount Hope
Fresh Food Deli Grocery	2179	Washington Avenue	Bronx	10457	2015	3	40.853505	-73.89442	Claremont-Bathgate
J.J.N. Corp Deli Grocery	1512	Washington Avenue	Bronx	10457	2015	3	40.837956	-73.90315	Claremont-Bathgate
Jade Food Center	3822	3rd AVENUE	Bronx	10457	2015	3	40.837875	-73.901412	Claremont-Bathgate
Los Primos Grocery	1965	Webster Avenue	Bronx	10457	2015	3	40.849462	-73.899949	Mount Hope
Los Primos Grocery	1798	Crotona Avenue	Bronx	10457	2015	3	40.842792	-73.893526	East Tremont
Mills Grocery	1570	Bathgate Avenue	Bronx	10457	2015	3	40.838762	-73.901563	Claremont-Bathgate
Naranjal Grocery	200	East Tremont Avenue	Bronx	10457	2015	3	40.84911	-73.905415	Mount Hope
Omale New York Grocery	2172	Crotona Avenue	Bronx	10457	2015	3	40.850097	-73.886683	East Tremont
Vasquez Deli Grocery	1959	Clinton Avenue	Bronx	10457	2015	3	40.845028	-73.890002	East Tremont
Webster Food Corp	2031	Webster Avenue	Bronx	10457	2015	3	40.85091	-73.899032	Mount Hope
Almontaser Enterprises LLC	2792	Fulton Street	Brooklyn	11207	2016	3	40.678053	-73.891478	East New York
Habibi Gourmet Deli	2761	Fulton Street	Brooklyn	11207	2016	3	40.677879	-73.892772	Cypress Hills-City Line
J & K Grocery	2737	Fulton Street	Brooklyn	11207	2016	3	40.677742	-73.893678	Cypress Hills-City Line
La Vega Grocery	2772	Fulton Street	Brooklyn	11207	2016	3	40.677936	-73.892268	East New York
Marien Groceries Corp.	99	Jamaica Avenue	Brooklyn	11207	2016	3	40.678656	-73.896416	Cypress Hills-City Line
One Apple Grocery Store	609	Wilson Avenue	Brooklyn	11207	2016	3	40.69016	-73.907173	Bushwick North
Plaza Meat Market	100	Cooper Street	Brooklyn	11207	2016	3	40.68619	-73.908898	Bushwick South
Shorty Meat Farm	2949	Fulton Street	Brooklyn	11207	2016	3	40.679549	-73.885916	Cypress Hills-City Line
Sunny Supermarket	200	Jamaica Avenue	Brooklyn	11207	2016	3	40.68039	-73.892682	Cypress Hills-City Line
VLT Mini Market Inc.	2837	Fulton Street	Brooklyn	11207	2016	3	40.678348	-73.889747	Cypress Hills-City Line
Comidas Dominicanas Capellan Deli	1626	Park Avenue	New York	10029	2015	3	40.798843	-73.943587	East Harlem North
Deli Superette	1858	Lexington Avenue	New York	10029	2015	3	40.798118	-73.942006	East Harlem North
Puchito Grocery	2122	2nd Avenue	New York	10029	2015	3	40.792642	-73.940956	East Harlem North
Annabelle Deli	2121	2nd Avenue	New York	10029	2015	3	40.792729	-73.940913	East Harlem North
Juice Bar Deli	308	East 116th Street	New York	10029	2015	3	40.796768	-73.937236	East Harlem North
AA Deli and Grocery	2100	2nd Avenue	New York	10029	2015	3	40.792074	-73.941372	East Harlem South
Mini Market Corps	1690	Lexington Avenue	New York	10029	2015	3	40.79235	-73.946215	East Harlem South
Madison Deli and Grocery	1550	Madison Avenue	New York	10029	2015	3	40.792753	-73.950144	East Harlem South
El Tepeyac Grocery	1621	Lexington Avenue	New York	10029	2015	3	40.789922	-73.947961	East Harlem South
Mi Mexico Mini Market	172	East 104th Street	New York	10029	2015	3	40.790605	-73.946469	East Harlem South
East Side Gourmet Deli	1863	3rd Avenue	New York	10029	2015	3	40.789515	-73.946163	East Harlem South
2015 Food Deli	2015	1st Avenue	New York	10029	2015	3	40.788176	-73.941133	East Harlem South
JJ Food  Market	153	East 99th Street	New York	10029	2015	3	40.787686	-73.94923	East Harlem South
Deli Mini Mart	339	East 115th Street	New York	10029	2015	3	40.79565	-73.936703	East Harlem North
Cherry Deli Gourmet	1575	Lexington Avenue	New York	10029	2015	3	40.78874	-73.948825	East Harlem South
Cherry Valley Market	309	East 115th Street	New York	10029	2015	3	40.796167	-73.937941	East Harlem North
Super Fi Emporium	1635	Lexington Avenue	New York	10029	2015	3	40.790501	-73.947538	East Harlem South
NYC Fresh Market	1656	Madison Avenue	New York	10029	2015	3	40.796358	-73.947512	East Harlem South
Fine Fare	1718	Madison Avenue	New York	10029	2015	3	40.798265	-73.94612	East Harlem North
City Fresh Market	235	East 106th Street	New York	10029	2015	3	40.791026	-73.943359	East Harlem South
1408 Deli & Grocery Corp.	1408	Fulton Avenue	Bronx	10456	2016	4	40.834741	-73.901771	Morrisania-Melrose
2009 Melissa Deli Corp.	621	East 170th Street	Bronx	10456	2016	4	40.834199	-73.900167	Morrisania-Melrose
99 Cent Deli Square	3754	3rd AVE	Bronx	10456	2016	4	40.836328	-73.902603	Claremont-Bathgate
Associated Supermarket	724	East 161st Street	Bronx	10456	2016	4	40.821432	-73.905183	Melrose South-Mott Haven North
Baraka African Market	1345	Webster Avenue	Bronx	10456	2016	4	40.835698	-73.907714	East Concourse-Concourse Village
College Ave.  Deli and Market Inc.	288	East 168th Street	Bronx	10456	2016	4	40.833333	-73.912802	East Concourse-Concourse Village
First Food Market	3706	3rd Avenue	Bronx	10456	2016	4	40.835694	-73.903052	Claremont-Bathgate
Food Bazaar	535	East 170th Street	Bronx	10456	2016	4	40.834931	-73.903144	Claremont-Bathgate
Key Food Supermarket.	340	Pennsylvania Avenue	Bronx	10456	2016	4			
La Hermadad Supermarket Inc.	193	McClellan Street	Bronx	10456	2016	4	40.832698	-73.917847	East Concourse-Concourse Village
M&G Food Corp.	391	East 167th Street	Bronx	10456	2016	4	40.830848	-73.910854	East Concourse-Concourse Village
Soumandji Meat Fish Market	381	East 169th Street	Bronx	10456	2016	4	40.834317	-73.909953	East Concourse-Concourse Village
Z&F Deli Grocery	3321	Third Avenue	Bronx	10456	2016	4	40.826215	-73.907857	Morrisania-Melrose
Angelic Grocery and Deli Corp	305	Jerome St	Brooklyn	11207	2016	4	40.67425	-73.886974	East New York
Dama Food Market	2303	Pitkin Avenue	Brooklyn	11207	2016	4	40.673169	-73.887315	East New York
Danilo's Corp Deli Grocery	731	Schenck Avenue	Brooklyn	11207	2016	4	40.662374	-73.884828	East New York
George Deli & Grocery	710	Georgia Avenue	Brooklyn	11207	2016	4	40.659602	-73.893566	East New York (Pennsylvania Ave)
JLC Deli Grocery	653	Liberty Avenue	Brooklyn	11207	2016	4	40.676038	-73.885551	East New York
Melissa Meat Market	772	Sutter Avenue	Brooklyn	11207	2016	4	40.670122	-73.890085	East New York
Quezada Deli Grocery	570	Van Siclen Avenue	Brooklyn	11207	2016	4	40.66582	-73.888567	East New York
Sajoma Deli Grocery	772	Miller Avenue	Brooklyn	11207	2016	4	40.661971	-73.887788	East New York (Pennsylvania Ave)
"VA Grocery & Deli Corp  
(Brother's Mini Market)"	207	Hull Street	Brooklyn	11207	2016	4	40.679876	-73.908009	Ocean Hill
Wild Olive Market	10	East 125th Street	New York	10035	2016	4	40.806215	-73.941807	East Harlem North
Juan Calito Meat Corp./City Fresh	2212	3rd Avenue	New York	10035	2016	4	40.80083	-73.937926	East Harlem North
Prince Deli Grocery	1461	5th Avenue	New York	10035	2016	4	40.80211	-73.945394	East Harlem North
TSM 2ND Ave Gourmet Deli	248	East 119th street	New York	10035	2016	4	40.799408	-73.937479	East Harlem North
Fine Fare Supermarket	2330	1st Avenue	New York	10035	2016	4	40.798278	-73.933731	East Harlem North
Viva Deli	2330	1st Avenue	New York	10035	2016	4	40.798278	-73.933731	East Harlem North
Abdur Sami	2262	2nd Avenue	New York	10035	2016	4	40.797155	-73.937651	East Harlem North
Mis Hijos	2401	2nd Avenue	New York	10035	2016	4	40.801484	-73.934425	East Harlem North
Oasis Gourmet Deli	1966	Madison Avenue	New York	10035	2016	4	40.806313	-73.94024	East Harlem North
Tasty Pick Deli & Grocery	1878	Lexington Avenue	New York	10035	2016	4	40.799202	-73.94121	East Harlem North
K&O Deli Grocery	2288	2nd Avenue	New York	10035	2016	4	40.797964	-73.937061	East Harlem North
Finest Food Corp	315	Pleasant Avenue	New York	10035	2016	4	40.795527	-73.932824	East Harlem North
2001 GOURMET DELI	2001	CLINTON AVE	Bronx	10457	2017	5	40.846375	-73.888858	East Tremont
347 CHABELY DELI GROCERY	347	E 173RD ST	Bronx	10457	2017	5	40.843433	-73.905145	Mount Hope
ALFONSOS DELI & GROCERY	2236	GRAND CONCOURSE	Bronx	10457	2017	5	40.856256	-73.90064	Fordham South
AMIGOS GROCERY	551	EAST 172ND ST	Bronx	10457	2017	5	40.839504	-73.899545	Claremont-Bathgate
FELINO GROCERY	1836	ANTHONY AVE	Bronx	10457	2017	5	40.847412	-73.903704	Mount Hope
FELOMAR GROCERY STORE	154	E 175TH ST	Bronx	10457	2017	5	40.846798	-73.908111	Mount Hope
HABIBI DELI	2070	CLINTON AVE	Bronx	10457	2017	5	40.847236	-73.888101	East Tremont
LOS PALMARITOS DELI GROCERY	2080	VALENTINE AVE	Bronx	10457	2017	5	40.852753	-73.899897	Mount Hope
PAULINO GROCERY	4378	3RD AVE	Bronx	10457	2017	5	40.850821	-73.893958	East Tremont
SAER & JAMAL MARKET 2	563	E TREMONT AVE	Bronx	10457	2017	5	40.846509	-73.894814	East Tremont
CONCOURSE FOOD PLAZA	2096	GRAND CONCOURSE	Bronx	10457	2017	5	40.854042	-73.902295	Mount Hope
305 GROCERY DELI	305	EAST 181ST ST	Bronx	10457	2017	5	40.854045	-73.899172	Mount Hope
551 REY FOOD	551	E 178TH ST	Bronx	10457	2017	5	40.847528	-73.894599	East Tremont
ALANTE ALANTE DELI GROCERY	207	MT HOPE PL	Bronx	10457	2017	5	40.84833	-73.905669	Mount Hope
BANESA DELI GROCERY 2	2007	ANTHONY AVE	Bronx	10457	2017	5	40.851468	-73.902885	Mount Hope
BODEGA BUILT	601	EAST 180TH STREET	Bronx	10457	2017	5	40.849394	-73.891375	East Tremont
CHICKEN DELI GROCERY	555	EAST 180TH ST	Bronx	10457	2017	5	40.850351	-73.893326	East Tremont
JJN CORP	1512	WASHINGTON AVE	Bronx	10457	2017	5	40.837956	-73.90315	Claremont-Bathgate
LOS PRIMOS DELI GROCERY	1798	CROTONA AVE	Bronx	10457	2017	5	40.842792	-73.893526	East Tremont
ZAEL DELI & GROCERY	2160	TIEBOUT AVE	Bronx	10457	2017	5	40.854091	-73.898554	Fordham South
FINE FARE SUPERMARKET	708	East TREMONT AVE	Bronx	10457	2017	5	40.845227	-73.890771	East Tremont
C & T DELI GROCERY STORE	2275	WASHINGTON AVE	Bronx	10457	2017	5	40.855028	-73.893336	Claremont-Bathgate
C-TOWN	309	East BURNSIDE AVE	Bronx	10457	2017	5	40.850588	-73.901133	Mount Hope
LOS PRIMOS GROCERY	1965	WEBSTER AVE	Bronx	10457	2017	5	40.849462	-73.899949	Mount Hope
269 MINI MARKET & DELI	269	East BURNSIDE AVE	Bronx	10457	2017	5	40.851333	-73.902133	Mount Hope
JR 2121 DELI GROCERY	2121	BELMONT AVE	Bronx	10457	2017	5	40.849172	-73.889446	East Tremont
BBB DELI GROCERY	214B	E 180TH ST	Bronx	10457	2017	5	40.853232	-73.901971	Mount Hope
DIAZ DELI GROCERY	306	E 178TH ST	Bronx	10457	2017	5	40.849999	-73.902497	Mount Hope
LA ANTILLANA MEAT WAREHOUSE	245	East TREMONT AVE	Bronx	10457	2017	5	40.848922	-73.904407	Mount Hope
JADE FOOD CENTER	3822	3RD AVE	Bronx	10457	2017	5	40.837875	-73.901412	Claremont-Bathgate
OJ DELI GROCERY	230	E 174TH ST	Bronx	10457	2017	5	40.84472	-73.907427	Mount Hope
LA BODEGUITA DE ROSAURA	160	E 174TH ST	Bronx	10457	2017	5	40.844817	-73.909238	Mount Hope
EXPRESS MARKET	469	E TREMONT AVE	Bronx	10457	2017	5	40.847075	-73.898247	Claremont-Bathgate
3 Sisters Deli Grocery	269	Dumont Ave	Brooklyn	11212	2017	5	40.664065	-73.909566	Brownsville
702 Livonia Ave Deli	702	Rockaway Ave	Brooklyn	11212	2017	5	40.662769	-73.908984	Brownsville
Chester Food Market	241	Blake Ave	Brooklyn	11212	2017	5	40.665518	-73.910487	Brownsville
MJT Grocery Store	666	Rockaway Ave	Brooklyn	11212	2017	5	40.663255	-73.909106	Brownsville
Blessings Food Corp.	578	Rockaway Ave	Brooklyn	11212	2017	5	40.665951	-73.909795	Brownsville
Rockaway Deli Food Corp.	674	Rockaway Ave	Brooklyn	11212	2017	5	40.663148	-73.909077	Brownsville
El Especial Deli & Gril	774	Rockaway Ave	Brooklyn	11212	2017	5	40.66071	-73.908457	Brownsville
Friendly Food & Grocery	784	Saratoga Ave	Brooklyn	11212	2017	5	40.661305	-73.91542	Brownsville
Sanaa Express Grocery	245	Riverdale Ave	Brooklyn	11212	2017	5	40.661129	-73.907812	Brownsville
Cherry Valley	381	Mother Gaston Blvd	Brooklyn	11212	2017	5	40.669745	-73.906859	Brownsville
Jamao Grocery	174	Blake Ave	Brooklyn	11212	2017	5	40.665097	-73.913206	Brownsville
Los Primos Grocery	57	Sutter Ave	Brooklyn	11212	2017	5	40.665613	-73.920587	Brownsville
39 Lott Grocery	39	Lott	Brooklyn	11212	2017	5			
51 Deli & Grocery NYC	51	Hegeman Ave	Brooklyn	11212	2017	5	40.655828	-73.910331	Brownsville
77 Hegeman Mini Market	77	Hegeman Ave	Brooklyn	11212	2017	5	40.655981	-73.909322	Brownsville
Glen Deli & Grocery	55	Hegeman Ave	Brooklyn	11212	2017	5	40.655883	-73.909981	Brownsville
Associated supermarket	103	Hegeman Ave	Brooklyn	11212	2017	5	40.656153	-73.908172	Brownsville
Hidayat Deli Grocery	1111	Rutland Rd	Brooklyn	11212	2017	5	40.664805	-73.923119	Brownsville
T&L Deli & Grocery	1067	Rutland Rd	Brooklyn	11212	2017	5	40.663944	-73.924439	Brownsville
Bravo Supermarket	80	East 93Rd St	Brooklyn	11212	2017	5	40.662455	-73.926964	Rugby-Remsen Village
Associated Supermarket	190	East 98th St	Brooklyn	11212	2017	5	40.66264	-73.92032	Brownsville
Boston MiniMarket	9424	Kings Highway	Brooklyn	11212	2017	5	40.658474	-73.920581	Rugby-Remsen Village
Clarkson Food	1125	Clarkson Ave	Brooklyn	11212	2017	5	40.660467	-73.92113	Rugby-Remsen Village
New Way Supermarket	1167	Lenox Rd	Brooklyn	11212	2017	5	40.659951	-73.917592	Rugby-Remsen Village
Star Two Deli	994	Winthrop St	Brooklyn	11212	2017	5	40.659738	-73.926577	Rugby-Remsen Village
Ameer Food Market	9527	Church Ave	Brooklyn	11212	2017	5	40.655331	-73.916044	Rugby-Remsen Village
El Flaco Food	1093	Linden Blvd	Brooklyn	11212	2017	5	40.654327	-73.917775	Rugby-Remsen Village
La Linda Deli Grocery	1157	Willmohr St	Brooklyn	11212	2017	5	40.658163	-73.915979	Rugby-Remsen Village
9323 Linden Deli Food	9323	Church Ave	Brooklyn	11212	2017	5	40.654538	-73.917263	Rugby-Remsen Village
420 Royal Deli	420B	Mother Gaston Blvd	Brooklyn	11212	2017	5	40.668668	-73.906604	Brownsville
Leonardo Deli Grocery	441	Mother Gaston Blvd	Brooklyn	11212	2017	5	40.668248	-73.906479	Brownsville
C-Town	29	Belmont Ave	Brooklyn	11212	2017	5	40.668607	-73.909221	Brownsville
Moreno Mini Market	113	Belmont Ave	Brooklyn	11212	2017	5	40.669077	-73.906038	Brownsville
Bridge Deli & Grocery	1861	Pitkin Ave	Brooklyn	11212	2017	5	40.670686	-73.904064	Brownsville
Eye Deli & Grocery	1540	East New York Ave	Brooklyn	11212	2017	5	40.672108	-73.911243	Brownsville
Family Express Deli & Grocery	112	Watkins St	Brooklyn	11212	2017	5	40.670289	-73.90803	Brownsville
Golden Deli	1569	E New York Ave	Brooklyn	11212	2017	5	40.672599	-73.910121	Ocean Hill
New Friends Gourmet Deli	1788	Pitkin Ave	Brooklyn	11212	2017	5	40.670222	-73.907074	Brownsville
Yoha Mini Market	78	Thatford Ave	Brooklyn	11212	2017	5	40.670019	-73.909865	Brownsville
Pitikin Ave Deli & Grocery	1801	Pitkin Ave	Brooklyn	11212	2017	5	40.670326	-73.906487	Brownsville
Ideal Food Basket	1488	Pitkin Ave	Brooklyn	11212	2017	5	40.668494	-73.91872	Brownsville
Caba Deli Grocery	1419	E New York Ave	Brooklyn	11212	2017	5	40.67024	-73.915567	Ocean Hill
El Cibao	38	Herzl St	Brooklyn	11212	2017	5	40.669062	-73.915457	Brownsville
Shop Fair Supermarket	256	Livonia Ave	Brooklyn	11212	2017	5	40.662618	-73.908433	Brownsville
Food Bazaar	417	Junius St	Brooklyn	11212	2017	5	40.664415	-73.901629	Brownsville
Pioneer Supermarket	455	Sutter Ave	Brooklyn	11212	2017	5	40.668324	-73.90233	Brownsville
Airon Food Market	44	New Lots Ave	Brooklyn	11212	2017	5	40.657215	-73.903452	Brownsville
Giselle Mini Market	1697	E New York Ave	Brooklyn	11212	2017	5	40.674615	-73.905514	Ocean Hill
Powell Supermarket	323	Powell St	Brooklyn	11212	2017	5	40.666434	-73.90314	Brownsville
Green Village Meat Farm	229	Tapscott St	Brooklyn	11212	2017	5	40.662211	-73.919589	Brownsville
Anabelle Deli Grocery	2121	2nd Ave	New York	10029	2017	5	40.792729	-73.940913	East Harlem North
Cherry Gourmet Deli	1575	Lexington Ave	New York	10029	2017	5	40.78874	-73.948825	East Harlem South
Cherry Valley Supermarket	1968	2nd Ave	New York	10029	2017	5	40.787585	-73.944655	East Harlem South
Dave’s Gourmet	1944	1st Ave	New York	10029	2017	5	40.786124	-73.942594	East Harlem South
Family 1st Deli	2105	1st Ave	New York	10029	2017	5	40.791007	-73.939069	East Harlem South
Gold Deli	126	E 103rd St.	New York	10029	2017	5	40.790581	-73.948343	East Harlem South
L&O Deli Grocery	1618	Madison Ave	New York	10029	2017	5	40.795008	-73.948495	East Harlem South
La Constenita Grocery	2175	2nd Ave	New York	10029	2017	5	40.794249	-73.939799	East Harlem North
Luna Food Market	2121	1st Ave	New York	10029	2017	5	40.791658	-73.938591	East Harlem North
Lucky Corner Deli & Pro	2137	2nd Ave	New York	10029	2017	5	40.793056	-73.94067	East Harlem North
Mr. Moe’s Deli	2001	3rd Ave	New York	10029	2017	5	40.793985	-73.942905	East Harlem North
.NYC Fresh Market	1660	Madison Ave	New York	10029	2017	5	40.796457	-73.947439	East Harlem South
Puchito Grocery	2122	2nd Ave	New York	10029	2017	5	40.792642	-73.940956	East Harlem North
Raspberry Deli	2127	2nd Ave	New York	10029	2017	5	40.792853	-73.940822	East Harlem North
East Harlem Grocery	85 E	110th St.	New York	10029	2017	5	40.795771	-73.946725	East Harlem South
Sun & Moon Deli	142	E 112th St.	New York	10029	2017	5	40.796145	-73.943676	East Harlem South
Garden Gourmet	2019	1st Ave	New York	10029	2017	5	40.788417	-73.94096	East Harlem South
2037 Meat & Grocery	2037	2nd Ave	New York	10029	2017	5	40.789717	-73.943111	East Harlem South
Oxford 2 Deli Grocery	2024	2nd Ave	New York	10029	2017	5	40.789379	-73.943332	East Harlem South
Fine Fare Supermarket	1891	3rd Ave	New York	10029	2017	5	40.790544	-73.945411	East Harlem South
Asunan Inc.	1665	Lexington Ave	New York	10029	2017	5	40.79131	-73.946949	East Harlem South
1705 Deli Grocery	1705	Lexington Ave	New York	10029	2017	5	40.792765	-73.945886	East Harlem South
Lex & 103rd Inc.	1629	Lexington Ave	New York	10029	2017	5	40.790216	-73.947744	East Harlem South
Ranch Market	1635	Lexington Ave	New York	10029	2017	5	40.790501	-73.947538	East Harlem South
Uptown Supermarket	1588	Madison Ave	New York	10029	2017	5	40.793982	-73.949243	East Harlem South
El Tepeyac	1621	Lexington Ave	New York	10029	2017	5	40.789922	-73.947961	East Harlem South
Super Fi Emporium	1635	Lexington Ave	New York	10029	2017	5	40.790501	-73.947538	East Harlem South
Manhattan Haat Baazar	165	East 106th St.	New York	10029	2017	5	40.791966	-73.945594	East Harlem South
Cappellan Deli Grocery	1626	Park Ave	New York	10029	2017	5	40.798843	-73.943587	East Harlem North
Third Avenue Gourmet	2105	Third Ave	New York	10029	2017	5	40.797447	-73.94037	East Harlem North
Cherry Valley Supermarket	309	East 115th St.	New York	10029	2017	5	40.796167	-73.937941	East Harlem North
El Barrio Superette	1858	Lexington Ave	New York	10029	2017	5	40.798118	-73.942006	East Harlem North
New King Deli Grocery Corp.	23	East 115th St.	New York	10029	2017	5	40.799415	-73.945645	East Harlem North
Little Mexico Meat Grocery	2119	Third Ave	New York	10029	2017	5	40.797752	-73.94015	East Harlem North
Paniagua Deli Grocery	203	East 115th St.	New York	10029	2017	5	40.797233	-73.940432	East Harlem North
JJ Food Market	153	East 99th St.	New York	10029	2017	5	40.787686	-73.94923	East Harlem South
